{
    "links": {
        "self": "http://www.neowsapp.com/rest/v1/neo/3789549?api_key=iIulBulltgU6a56xZRHN4H3l9WmuAYTsLGpBGhQ2"
    },
    "id": "3789549",
    "neo_reference_id": "3789549",
    "name": "(2010 TE193)",
    "designation": "2010 TE193",
    "nasa_jpl_url": "http://ssd.jpl.nasa.gov/sbdb.cgi?sstr=3789549",
    "absolute_magnitude_h": 26.9,
    "estimated_diameter": {
        "kilometers": {
            "estimated_diameter_min": 0.0110803882,
            "estimated_diameter_max": 0.0247765013
        },
        "meters": {
            "estimated_diameter_min": 11.0803882126,
            "estimated_diameter_max": 24.7765012606
        },
        "miles": {
            "estimated_diameter_min": 0.0068850319,
            "estimated_diameter_max": 0.0153953994
        },
        "feet": {
            "estimated_diameter_min": 36.3529808636,
            "estimated_diameter_max": 81.2877363957
        }
    },
    "is_potentially_hazardous_asteroid": false,
    "close_approach_data": [
        {
            "close_approach_date": "2010-10-18",
            "close_approach_date_full": "2010-Oct-18 09:01",
            "epoch_date_close_approach": 1287392460000,
            "relative_velocity": {
                "kilometers_per_second": "9.0245903934",
                "kilometers_per_hour": "32488.5254164183",
                "miles_per_hour": "20187.1062511073"
            },
            "miss_distance": {
                "astronomical": "0.0256567795",
                "lunar": "9.9804872255",
                "kilometers": "3838199.564259665",
                "miles": "2384946.617786777"
            },
            "orbiting_body": "Earth"
        },
        {
            "close_approach_date": "2014-01-08",
            "close_approach_date_full": "2014-Jan-08 20:36",
            "epoch_date_close_approach": 1389213360000,
            "relative_velocity": {
                "kilometers_per_second": "20.5200683342",
                "kilometers_per_hour": "73872.2460032294",
                "miles_per_hour": "45901.34085684"
            },
            "miss_distance": {
                "astronomical": "0.4272619646",
                "lunar": "166.2049042294",
                "kilometers": "63917479.836175402",
                "miles": "39716480.2925364676"
            },
            "orbiting_body": "Earth"
        }
    ],
    "orbital_data": {
        "orbit_id": "2",
        "orbit_determination_date": "2020-09-12 06:49:36",
        "first_observation_date": "2010-10-04",
        "last_observation_date": "2010-10-22",
        "data_arc_in_days": 18,
        "observations_used": 25,
        "orbit_uncertainty": "6",
        "minimum_orbit_intersection": ".0267873",
        "jupiter_tisserand_invariant": "3.521",
        "epoch_osculation": "2459000.5",
        "eccentricity": ".5374732425956578",
        "semi_major_axis": "2.122521050499171",
        "inclination": "6.749924863236316",
        "ascending_node_longitude": "197.2679854523541",
        "orbital_period": "1129.474514861373",
        "perihelion_distance": ".9817227790098397",
        "perihelion_argument": "213.9929346262149",
        "aphelion_distance": "3.263319321988502",
        "perihelion_time": "2458898.541618677510",
        "mean_anomaly": "32.49742848832794",
        "mean_motion": ".3187322912232198",
        "equinox": "J2000",
        "orbit_class": {
            "orbit_class_type": "APO",
            "orbit_class_description": "Near-Earth asteroid orbits which cross the Earth’s orbit similar to that of 1862 Apollo",
            "orbit_class_range": "a (semi-major axis) > 1.0 AU; q (perihelion) < 1.017 AU"
        }
    },
    "is_sentry_object": false
}